[{"OBJECT_NAME":"STARLINK-31437","OBJECT_ID":"2024-112V","EPOCH":"2026-03-09T10:25:22.270656","MEAN_MOTION":15.30181601,"ECCENTRICITY":0.00012336,"INCLINATION":53.1602,"RA_OF_ASC_NODE":79.453,"ARG_OF_PERICENTER":73.8346,"MEAN_ANOMALY":286.279,"EPHEMERIS_TYPE":0,"CLASSIFICATION_TYPE":"U","NORAD_CAT_ID":60057,"ELEMENT_SET_NO":999,"REV_AT_EPOCH":9855,"BSTAR":-5.5929054e-5,"MEAN_MOTION_DOT":-2.014e-5,"MEAN_MOTION_DDOT":0},{"OBJECT_NAME":"CZ-6A DEB","OBJECT_ID":"2024-140UQ","EPOCH":"2026-03-09T14:36:35.114400","MEAN_MOTION":15.29987293,"ECCENTRICITY":0.0094347,"INCLINATION":89.0483,"RA_OF_ASC_NODE":279.5661,"ARG_OF_PERICENTER":66.0307,"MEAN_ANOMALY":295.0787,"EPHEMERIS_TYPE":0,"CLASSIFICATION_TYPE":"U","NORAD_CAT_ID":61327,"ELEMENT_SET_NO":999,"REV_AT_EPOCH":8299,"BSTAR":0.0015211,"MEAN_MOTION_DOT":0.00050856,"MEAN_MOTION_DDOT":0}]
